{
    "links": {
        "self": "http://www.neowsapp.com/rest/v1/neo/3552161?api_key=iIulBulltgU6a56xZRHN4H3l9WmuAYTsLGpBGhQ2"
    },
    "id": "3552161",
    "neo_reference_id": "3552161",
    "name": "(2010 WA)",
    "designation": "2010 WA",
    "nasa_jpl_url": "http://ssd.jpl.nasa.gov/sbdb.cgi?sstr=3552161",
    "absolute_magnitude_h": 30.0,
    "estimated_diameter": {
        "kilometers": {
            "estimated_diameter_min": 0.002658,
            "estimated_diameter_max": 0.0059434687
        },
        "meters": {
            "estimated_diameter_min": 2.658,
            "estimated_diameter_max": 5.9434686842
        },
        "miles": {
            "estimated_diameter_min": 0.0016516041,
            "estimated_diameter_max": 0.0036930991
        },
        "feet": {
            "estimated_diameter_min": 8.72047272,
            "estimated_diameter_max": 19.4995697979
        }
    },
    "is_potentially_hazardous_asteroid": false,
    "close_approach_data": [
        {
            "close_approach_date": "2010-11-16",
            "close_approach_date_full": "2010-Nov-16 20:36",
            "epoch_date_close_approach": 1289939760000,
            "relative_velocity": {
                "kilometers_per_second": "12.8573531485",
                "kilometers_per_hour": "46286.4713346824",
                "miles_per_hour": "28760.6132579309"
            },
            "miss_distance": {
                "astronomical": "0.0017729169",
                "lunar": "0.6896646741",
                "kilometers": "265224.591927003",
                "miles": "164802.9194105214"
            },
            "orbiting_body": "Moon"
        },
        {
            "close_approach_date": "2010-11-17",
            "close_approach_date_full": "2010-Nov-17 03:45",
            "epoch_date_close_approach": 1289965500000,
            "relative_velocity": {
                "kilometers_per_second": "13.0678290638",
                "kilometers_per_hour": "47044.1846297714",
                "miles_per_hour": "29231.426832871"
            },
            "miss_distance": {
                "astronomical": "0.0002597152",
                "lunar": "0.1010292128",
                "kilometers": "38852.840726624",
                "miles": "24142.0357464512"
            },
            "orbiting_body": "Earth"
        },
        {
            "close_approach_date": "2103-10-23",
            "close_approach_date_full": "2103-Oct-23 10:55",
            "epoch_date_close_approach": 4222580100000,
            "relative_velocity": {
                "kilometers_per_second": "24.33399362",
                "kilometers_per_hour": "87602.377032004",
                "miles_per_hour": "54432.7103285805"
            },
            "miss_distance": {
                "astronomical": "0.4161480426",
                "lunar": "161.8815885714",
                "kilometers": "62254860.777629262",
                "miles": "38683376.7152053356"
            },
            "orbiting_body": "Earth"
        }
    ],
    "orbital_data": {
        "orbit_id": "8",
        "orbit_determination_date": "2017-04-06 08:55:39",
        "first_observation_date": "2010-11-16",
        "last_observation_date": "2010-11-17",
        "data_arc_in_days": 1,
        "observations_used": 30,
        "orbit_uncertainty": "7",
        "minimum_orbit_intersection": ".000230969",
        "jupiter_tisserand_invariant": "4.041",
        "epoch_osculation": "2459000.5",
        "eccentricity": ".5047808415254684",
        "semi_major_axis": "1.697786758845337",
        "inclination": "8.226422425030897",
        "ascending_node_longitude": "234.5439344586029",
        "orbital_period": "808.0219156371689",
        "perihelion_distance": ".8407765299845903",
        "perihelion_argument": "236.1945230651252",
        "aphelion_distance": "2.554796987706084",
        "perihelion_time": "2458789.838170667459",
        "mean_anomaly": "93.85668518645576",
        "mean_motion": ".4455324701386603",
        "equinox": "J2000",
        "orbit_class": {
            "orbit_class_type": "APO",
            "orbit_class_description": "Near-Earth asteroid orbits which cross the Earth’s orbit similar to that of 1862 Apollo",
            "orbit_class_range": "a (semi-major axis) > 1.0 AU; q (perihelion) < 1.017 AU"
        }
    },
    "is_sentry_object": false
}